0 SL-8 DEB
1 21164U 91009AB  13282.24490162 -.00000013  00000-0  19688-4 0  1417
2 21164 074.0464 208.0802 0126232 339.9242 175.0177 12.21985129  6878
0 SL-8 DEB
1 21164U 91009AB  13286.89158083  .00000037  00000-0  47452-3 0  1431
2 21164 074.0470 202.2287 0126266 333.3025 096.4325 12.21984551  7445
0 SL-8 DEB
1 21164U 91009AB  13289.19341245  .00000040  00000-0  50612-3 0  1448
2 21164 074.0467 199.3299 0126300 330.0285 142.5126 12.21984637  7729
0 SL-8 DEB
1 21164U 91009AB  13291.48497870 -.00000054  00000-0 -36211-3 0  1456
2 21164 074.0463 196.4439 0126301 326.7751 143.4219 12.21985757  8009
0 SL-8 DEB
1 21164U 91009AB  13293.84894884  .00000020  00000-0  32342-3 0  1467
2 21164 074.0459 193.4665 0126312 323.4070 102.8725 12.21985101  8297
0 SL-8 DEB
1 21164U 91009AB  13296.16128933 -.00000006  00000-0  82421-4 0  1470
2 21164 074.0457 190.5540 0126329 320.1257 195.1776 12.21985247  8577
